{
"type": "FeatureCollection",
"name": "boundary",
"crs": { "type": "name", "properties": { "name": "urn:ogc:def:crs:OGC:1.3:CRS84" } },
"features": [
{ "type": "Feature", "properties": { "name": "City of Detroit", "geoid": "2622000", "source_url": "https://www2.census.gov/geo/tiger/GENZ2023/shp/cb_2023_26_place_500k.zip" }, "geometry": { "type": "Polygon", "coordinates": [ [ [ -83.287803, 42.442683 ], [ -83.278517, 42.442864 ], [ -83.278263, 42.442868 ], [ -83.268509, 42.443156 ], [ -83.258867, 42.443403 ], [ -83.250371, 42.443628 ], [ -83.239423, 42.443918 ], [ -83.226042, 42.44421 ], [ -83.225608, 42.444219 ], [ -83.219806, 42.444346 ], [ -83.219631, 42.444349 ], [ -83.216746, 42.444414 ], [ -83.210254, 42.444568 ], [ -83.204896, 42.444716 ], [ -83.203632, 42.444746 ], [ -83.203382, 42.444751 ], [ -83.200522, 42.444839 ], [ -83.190798, 42.445147 ], [ -83.187057, 42.44522 ], [ -83.181005, 42.445343 ], [ -83.171265, 42.445545 ], [ -83.161516, 42.445794 ], [ -83.151986, 42.446007 ], [ -83.150944, 42.446031 ], [ -83.147211, 42.446115 ], [ -83.14206, 42.446229 ], [ -83.136553, 42.446345 ], [ -83.124708, 42.446578 ], [ -83.117492, 42.446719 ], [ -83.11263, 42.446799 ], [ -83.112342, 42.446809 ], [ -83.109626, 42.446959 ], [ -83.102875, 42.44714 ], [ -83.097421, 42.44682 ], [ -83.094929, 42.446862 ], [ -83.0947, 42.446865 ], [ -83.090247, 42.446994 ], [ -83.088295, 42.447048 ], [ -83.083393, 42.447153 ], [ -83.081037, 42.447055 ], [ -83.071046, 42.447175 ], [ -83.063877, 42.447258 ], [ -83.061678, 42.447318 ], [ -83.059862, 42.447366 ], [ -83.054057, 42.447507 ], [ -83.044282, 42.447765 ], [ -83.039417, 42.447874 ], [ -83.034519, 42.447936 ], [ -83.024745, 42.448159 ], [ -83.014908, 42.448436 ], [ -83.014374, 42.44845 ], [ -83.007274, 42.448725 ], [ -83.005534, 42.448806 ], [ -83.005185, 42.448819 ], [ -83.002698, 42.448901 ], [ -82.994199, 42.449087 ], [ -82.985659, 42.44928 ], [ -82.978318, 42.449465 ], [ -82.971041, 42.449665 ], [ -82.967938, 42.449836 ], [ -82.966093, 42.449886 ], [ -82.957706, 42.450026 ], [ -82.95621, 42.450048 ], [ -82.955483, 42.450063 ], [ -82.946055, 42.450228 ], [ -82.942995, 42.450199 ], [ -82.941283, 42.45023 ], [ -82.945577, 42.44487 ], [ -82.946396, 42.443685 ], [ -82.946879, 42.442922 ], [ -82.948031, 42.441373 ], [ -82.951802, 42.436373 ], [ -82.951603, 42.436297 ], [ -82.951357, 42.435809 ], [ -82.947855, 42.434373 ], [ -82.943612, 42.432637 ], [ -82.940416, 42.431329 ], [ -82.937382, 42.43009 ], [ -82.932195, 42.427968 ], [ -82.927656, 42.426062 ], [ -82.927151, 42.425789 ], [ -82.917992, 42.422012 ], [ -82.916327, 42.421354 ], [ -82.910427, 42.419023 ], [ -82.910651, 42.417117 ], [ -82.910933, 42.416099 ], [ -82.912557, 42.41239 ], [ -82.914935, 42.407266 ], [ -82.917135, 42.402848 ], [ -82.918708, 42.399557 ], [ -82.919118, 42.398926 ], [ -82.921867, 42.395172 ], [ -82.922399, 42.394829 ], [ -82.926671, 42.393182 ], [ -82.927795, 42.392733 ], [ -82.933431, 42.390501 ], [ -82.934634, 42.390079 ], [ -82.9361, 42.389596 ], [ -82.939416, 42.388771 ], [ -82.946644, 42.387469 ], [ -82.946876, 42.38699 ], [ -82.943911, 42.382418 ], [ -82.942567, 42.380674 ], [ -82.93891, 42.37514 ], [ -82.934977, 42.369075 ], [ -82.930354, 42.36214 ], [ -82.930697, 42.361525 ], [ -82.928722232353607, 42.358526662587401 ], [ -82.928716, 42.35837 ], [ -82.932593, 42.357185 ], [ -82.952975436003399, 42.354976485651299 ], [ -82.955804, 42.35467 ], [ -82.964455, 42.355166 ], [ -82.966593088111694, 42.352887020532897 ], [ -82.96705, 42.3524 ], [ -82.962684, 42.349655 ], [ -82.954311, 42.34891 ], [ -82.953909, 42.346926 ], [ -82.959763, 42.34003 ], [ -82.988619, 42.332439 ], [ -83.0080353929919, 42.331588148110001 ], [ -83.013333, 42.331356 ], [ -83.019024, 42.330616 ], [ -83.024034335813397, 42.329430475326298 ], [ -83.026234, 42.32891 ], [ -83.04058, 42.324093 ], [ -83.040841132631499, 42.324011049677402 ], [ -83.050098, 42.321106 ], [ -83.063637, 42.316857 ], [ -83.07193, 42.311842 ], [ -83.073484720075996, 42.311030335560098 ], [ -83.078207, 42.308565 ], [ -83.078390786946599, 42.308416035843202 ], [ -83.080392, 42.306794 ], [ -83.09729, 42.290068 ], [ -83.099643, 42.287136 ], [ -83.099910026452903, 42.286611661022697 ], [ -83.103666, 42.287922 ], [ -83.109225, 42.289225 ], [ -83.111144, 42.289474 ], [ -83.114705, 42.290177 ], [ -83.116624, 42.290186 ], [ -83.119326, 42.289057 ], [ -83.119954, 42.287554 ], [ -83.118937, 42.282975 ], [ -83.117839, 42.281163 ], [ -83.118373, 42.279187 ], [ -83.121971, 42.279435 ], [ -83.12879, 42.280791 ], [ -83.13157, 42.281408 ], [ -83.135744, 42.282589 ], [ -83.13753, 42.282791 ], [ -83.140368, 42.279466 ], [ -83.143534, 42.275735 ], [ -83.14804, 42.270438 ], [ -83.153033, 42.264401 ], [ -83.160859, 42.255192 ], [ -83.161052, 42.25496 ], [ -83.163061, 42.257245 ], [ -83.164477, 42.258227 ], [ -83.166432, 42.259675 ], [ -83.167264, 42.262281 ], [ -83.168519, 42.264187 ], [ -83.169907, 42.264577 ], [ -83.165103, 42.270067 ], [ -83.161487, 42.274351 ], [ -83.15824, 42.278844 ], [ -83.160894, 42.281303 ], [ -83.162022, 42.282533 ], [ -83.16337, 42.285263 ], [ -83.166852, 42.289148 ], [ -83.167074, 42.289571 ], [ -83.161748, 42.291789 ], [ -83.15785, 42.292437 ], [ -83.157328, 42.295181 ], [ -83.151079, 42.296233 ], [ -83.149763, 42.295566 ], [ -83.148823, 42.293202 ], [ -83.147468, 42.292539 ], [ -83.144473, 42.293584 ], [ -83.142641, 42.294415 ], [ -83.1407, 42.297036 ], [ -83.140403, 42.299054 ], [ -83.142438, 42.305252 ], [ -83.139717, 42.308662 ], [ -83.14078, 42.311008 ], [ -83.143448, 42.31469 ], [ -83.146948, 42.319525 ], [ -83.147038, 42.31963 ], [ -83.153209, 42.328087 ], [ -83.156551, 42.32724 ], [ -83.15668, 42.328731 ], [ -83.156737, 42.329925 ], [ -83.156981, 42.336961 ], [ -83.15385, 42.337382 ], [ -83.150901, 42.338869 ], [ -83.149788, 42.340295 ], [ -83.148431, 42.344688 ], [ -83.147545, 42.349918 ], [ -83.147736, 42.351916 ], [ -83.149623, 42.351877 ], [ -83.152635, 42.351816 ], [ -83.157525, 42.351716 ], [ -83.167393, 42.351499 ], [ -83.177184, 42.351284 ], [ -83.181934, 42.351181 ], [ -83.186911, 42.351079 ], [ -83.191287, 42.350992 ], [ -83.196609, 42.35089 ], [ -83.196288, 42.343665 ], [ -83.195983, 42.33824 ], [ -83.19591, 42.336439 ], [ -83.196135, 42.336435 ], [ -83.20211, 42.336353 ], [ -83.209507, 42.336268 ], [ -83.213658, 42.335784 ], [ -83.215415, 42.336135 ], [ -83.215355, 42.328945 ], [ -83.215585, 42.328941 ], [ -83.225029, 42.328815 ], [ -83.225226, 42.328812 ], [ -83.227707, 42.332377 ], [ -83.23245, 42.33087 ], [ -83.234981, 42.32983 ], [ -83.235105, 42.335834 ], [ -83.237568, 42.335736 ], [ -83.237846, 42.343086 ], [ -83.242505, 42.343005 ], [ -83.243721, 42.342949 ], [ -83.252167, 42.342034 ], [ -83.253623, 42.341893 ], [ -83.264045, 42.341691 ], [ -83.26425, 42.342795 ], [ -83.264864, 42.34893 ], [ -83.265144, 42.35173 ], [ -83.265656, 42.357055 ], [ -83.265987, 42.357046 ], [ -83.266213, 42.364266 ], [ -83.266599, 42.374458 ], [ -83.266663, 42.378604 ], [ -83.266667, 42.378793 ], [ -83.274988, 42.378607 ], [ -83.275208, 42.385468 ], [ -83.275725, 42.400096 ], [ -83.275941, 42.407281 ], [ -83.276681, 42.407278 ], [ -83.286463, 42.407 ], [ -83.286698, 42.414252 ], [ -83.287042, 42.421439 ], [ -83.287341, 42.428554 ], [ -83.287527, 42.434882 ], [ -83.28777, 42.442524 ], [ -83.287803, 42.442683 ] ], [ [ -83.117146, 42.410391 ], [ -83.113309, 42.404673 ], [ -83.112089, 42.403031 ], [ -83.109119, 42.398749 ], [ -83.109048, 42.398585 ], [ -83.105906, 42.393101 ], [ -83.102278, 42.388084 ], [ -83.097727, 42.389843 ], [ -83.088665, 42.393102 ], [ -83.079728, 42.396482 ], [ -83.07377, 42.398786 ], [ -83.071192, 42.395605 ], [ -83.069272, 42.393232 ], [ -83.069134, 42.393056 ], [ -83.066452, 42.389775 ], [ -83.062487, 42.391243 ], [ -83.061937, 42.39041 ], [ -83.055683, 42.381145 ], [ -83.054747, 42.379595 ], [ -83.040494, 42.384763 ], [ -83.043393, 42.38883 ], [ -83.044356, 42.390181 ], [ -83.042302, 42.390214 ], [ -83.042375, 42.393127 ], [ -83.042468, 42.397427 ], [ -83.042534, 42.404443 ], [ -83.047257, 42.40446 ], [ -83.054023, 42.40444 ], [ -83.056917, 42.408752 ], [ -83.057071, 42.408981 ], [ -83.060696, 42.407651 ], [ -83.062927, 42.406834 ], [ -83.064284, 42.406334 ], [ -83.067627, 42.405105 ], [ -83.069218, 42.404518 ], [ -83.072477, 42.403296 ], [ -83.072743, 42.403177 ], [ -83.076301, 42.40189 ], [ -83.08148, 42.408189 ], [ -83.089417, 42.418161 ], [ -83.101812, 42.417828 ], [ -83.105293, 42.417749 ], [ -83.11644, 42.417579 ], [ -83.121932, 42.417482 ], [ -83.117146, 42.410391 ] ] ] } }
]
}
