{
"type": "FeatureCollection",
"name": "grocers",
"crs": { "type": "name", "properties": { "name": "urn:ogc:def:crs:OGC:1.3:CRS84" } },
"features": [
{ "type": "Feature", "properties": { "id": "osm-unnamed-0", "name": "7 Mile Foods", "address": "8139 East 7 Mile Road Detroit", "latitude": 42.434295, "longitude": -83.021402, "source": "OpenStreetMap + manual review", "qualifies": true, "store_type": "supermarket", "notes": "OSM supermarket/grocery tag; manually screened by name against MVP rubric.", "last_verified": "2026-09-17", "adequacy_tier": "assortment_only", "price_concern": "unknown", "quality_concern": "unknown", "reviewer_notes": "V1 assortment screen only. Quality and price not evaluated; many Detroit stores that meet minimum assortment are still overpriced or low-quality." }, "geometry": { "type": "Point", "coordinates": [ -83.021402, 42.434295 ] } },
{ "type": "Feature", "properties": { "id": "osm-unnamed-1", "name": "ALDI", "address": "15415 Gratiot Avenue Detroit", "latitude": 42.448776, "longitude": -82.970256, "source": "OpenStreetMap + manual review", "qualifies": true, "store_type": "supermarket", "notes": "OSM supermarket/grocery tag; manually screened by name against MVP rubric.", "last_verified": "2026-09-17", "adequacy_tier": "assortment_only", "price_concern": "unknown", "quality_concern": "unknown", "reviewer_notes": "V1 assortment screen only. Quality and price not evaluated; many Detroit stores that meet minimum assortment are still overpriced or low-quality." }, "geometry": { "type": "Point", "coordinates": [ -82.970256, 42.448776 ] } },
{ "type": "Feature", "properties": { "id": "osm-unnamed-2", "name": "ALDI", "address": "14708 Mack Avenue Detroit", "latitude": 42.386159, "longitude": -82.94897, "source": "OpenStreetMap + manual review", "qualifies": true, "store_type": "supermarket", "notes": "OSM supermarket/grocery tag; manually screened by name against MVP rubric.", "last_verified": "2026-09-17", "adequacy_tier": "assortment_only", "price_concern": "unknown", "quality_concern": "unknown", "reviewer_notes": "V1 assortment screen only. Quality and price not evaluated; many Detroit stores that meet minimum assortment are still overpriced or low-quality." }, "geometry": { "type": "Point", "coordinates": [ -82.94897, 42.386159 ] } },
{ "type": "Feature", "properties": { "id": "osm-unnamed-3", "name": "Algo Especial Super Market", "address": "2628 Bagley Street Detroit", "latitude": 42.325347, "longitude": -83.078607, "source": "OpenStreetMap + manual review", "qualifies": true, "store_type": "supermarket", "notes": "OSM supermarket/grocery tag; manually screened by name against MVP rubric.", "last_verified": "2026-09-17", "adequacy_tier": "assortment_only", "price_concern": "unknown", "quality_concern": "unknown", "reviewer_notes": "V1 assortment screen only. Quality and price not evaluated; many Detroit stores that meet minimum assortment are still overpriced or low-quality." }, "geometry": { "type": "Point", "coordinates": [ -83.078607, 42.325347 ] } },
{ "type": "Feature", "properties": { "id": "osm-unnamed-4", "name": "Americana Foods", "address": "15041 Plymouth Road Detroit", "latitude": 42.372406, "longitude": -83.192808, "source": "OpenStreetMap + manual review", "qualifies": true, "store_type": "supermarket", "notes": "OSM supermarket/grocery tag; manually screened by name against MVP rubric.", "last_verified": "2026-09-17", "adequacy_tier": "assortment_only", "price_concern": "unknown", "quality_concern": "unknown", "reviewer_notes": "V1 assortment screen only. Quality and price not evaluated; many Detroit stores that meet minimum assortment are still overpriced or low-quality." }, "geometry": { "type": "Point", "coordinates": [ -83.192808, 42.372406 ] } },
{ "type": "Feature", "properties": { "id": "osm-unnamed-5", "name": "Amori's Marketplace", "address": "1404 East Jefferson Avenue Detroit", "latitude": 42.333596, "longitude": -83.031829, "source": "OpenStreetMap + manual review", "qualifies": true, "store_type": "supermarket", "notes": "OSM supermarket/grocery tag; manually screened by name against MVP rubric.", "last_verified": "2026-09-17", "adequacy_tier": "assortment_only", "price_concern": "unknown", "quality_concern": "unknown", "reviewer_notes": "V1 assortment screen only. Quality and price not evaluated; many Detroit stores that meet minimum assortment are still overpriced or low-quality." }, "geometry": { "type": "Point", "coordinates": [ -83.031829, 42.333596 ] } },
{ "type": "Feature", "properties": { "id": "osm-unnamed-6", "name": "Apollo Market", "address": "20250 West 7 Mile Road Detroit", "latitude": 42.430669, "longitude": -83.241419, "source": "OpenStreetMap + manual review", "qualifies": true, "store_type": "supermarket", "notes": "OSM supermarket/grocery tag; manually screened by name against MVP rubric.", "last_verified": "2026-09-17", "adequacy_tier": "assortment_only", "price_concern": "unknown", "quality_concern": "unknown", "reviewer_notes": "V1 assortment screen only. Quality and price not evaluated; many Detroit stores that meet minimum assortment are still overpriced or low-quality." }, "geometry": { "type": "Point", "coordinates": [ -83.241419, 42.430669 ] } },
{ "type": "Feature", "properties": { "id": "osm-unnamed-7", "name": "Azteca Supermercado", "address": "nan nan nan", "latitude": 42.313602, "longitude": -83.125505, "source": "OpenStreetMap + manual review", "qualifies": true, "store_type": "supermarket", "notes": "OSM supermarket/grocery tag; manually screened by name against MVP rubric.", "last_verified": "2026-09-17", "adequacy_tier": "assortment_only", "price_concern": "unknown", "quality_concern": "unknown", "reviewer_notes": "V1 assortment screen only. Quality and price not evaluated; many Detroit stores that meet minimum assortment are still overpriced or low-quality." }, "geometry": { "type": "Point", "coordinates": [ -83.125505, 42.313602 ] } },
{ "type": "Feature", "properties": { "id": "osm-unnamed-8", "name": "Banner Supermarket", "address": "14424 Schaefer Highway Detroit", "latitude": 42.394397, "longitude": -83.177857, "source": "OpenStreetMap + manual review", "qualifies": true, "store_type": "supermarket", "notes": "OSM supermarket/grocery tag; manually screened by name against MVP rubric.", "last_verified": "2026-09-17", "adequacy_tier": "assortment_only", "price_concern": "unknown", "quality_concern": "unknown", "reviewer_notes": "V1 assortment screen only. Quality and price not evaluated; many Detroit stores that meet minimum assortment are still overpriced or low-quality." }, "geometry": { "type": "Point", "coordinates": [ -83.177857, 42.394397 ] } },
{ "type": "Feature", "properties": { "id": "osm-unnamed-9", "name": "City Market Detroit", "address": "575 Brush Street Detroit", "latitude": 42.331593, "longitude": -83.042043, "source": "OpenStreetMap + manual review", "qualifies": true, "store_type": "supermarket", "notes": "OSM supermarket/grocery tag; manually screened by name against MVP rubric.", "last_verified": "2026-09-17", "adequacy_tier": "assortment_only", "price_concern": "unknown", "quality_concern": "unknown", "reviewer_notes": "V1 assortment screen only. Quality and price not evaluated; many Detroit stores that meet minimum assortment are still overpriced or low-quality." }, "geometry": { "type": "Point", "coordinates": [ -83.042043, 42.331593 ] } },
{ "type": "Feature", "properties": { "id": "osm-unnamed-10", "name": "Del-Point Food Center", "address": "16700 Harper Avenue Detroit", "latitude": 42.414159, "longitude": -82.939611, "source": "OpenStreetMap + manual review", "qualifies": true, "store_type": "supermarket", "notes": "OSM supermarket/grocery tag; manually screened by name against MVP rubric.", "last_verified": "2026-09-17", "adequacy_tier": "assortment_only", "price_concern": "unknown", "quality_concern": "unknown", "reviewer_notes": "V1 assortment screen only. Quality and price not evaluated; many Detroit stores that meet minimum assortment are still overpriced or low-quality." }, "geometry": { "type": "Point", "coordinates": [ -82.939611, 42.414159 ] } },
{ "type": "Feature", "properties": { "id": "osm-unnamed-11", "name": "Detroit People's Food Co-op", "address": "nan nan nan", "latitude": 42.377147, "longitude": -83.077369, "source": "OpenStreetMap + manual review", "qualifies": true, "store_type": "supermarket", "notes": "OSM supermarket/grocery tag; manually screened by name against MVP rubric.", "last_verified": "2026-09-17", "adequacy_tier": "assortment_only", "price_concern": "unknown", "quality_concern": "unknown", "reviewer_notes": "V1 assortment screen only. Quality and price not evaluated; many Detroit stores that meet minimum assortment are still overpriced or low-quality." }, "geometry": { "type": "Point", "coordinates": [ -83.077369, 42.377147 ] } },
{ "type": "Feature", "properties": { "id": "osm-unnamed-12", "name": "E & L Supermercado", "address": "6000 West Vernor Highway Detroit", "latitude": 42.31686, "longitude": -83.106474, "source": "OpenStreetMap + manual review", "qualifies": true, "store_type": "supermarket", "notes": "OSM supermarket/grocery tag; manually screened by name against MVP rubric.", "last_verified": "2026-09-17", "adequacy_tier": "assortment_only", "price_concern": "unknown", "quality_concern": "unknown", "reviewer_notes": "V1 assortment screen only. Quality and price not evaluated; many Detroit stores that meet minimum assortment are still overpriced or low-quality." }, "geometry": { "type": "Point", "coordinates": [ -83.106474, 42.31686 ] } },
{ "type": "Feature", "properties": { "id": "osm-unnamed-13", "name": "Fair Line Food Center", "address": "16520 West Warren Avenue Detroit", "latitude": 42.343795, "longitude": -83.207334, "source": "OpenStreetMap + manual review", "qualifies": true, "store_type": "supermarket", "notes": "OSM supermarket/grocery tag; manually screened by name against MVP rubric.", "last_verified": "2026-09-17", "adequacy_tier": "assortment_only", "price_concern": "unknown", "quality_concern": "unknown", "reviewer_notes": "V1 assortment screen only. Quality and price not evaluated; many Detroit stores that meet minimum assortment are still overpriced or low-quality." }, "geometry": { "type": "Point", "coordinates": [ -83.207334, 42.343795 ] } },
{ "type": "Feature", "properties": { "id": "osm-unnamed-14", "name": "Family Fair Marketplace", "address": "700 Chene Street Detroit", "latitude": 42.340819, "longitude": -83.023234, "source": "OpenStreetMap + manual review", "qualifies": true, "store_type": "supermarket", "notes": "OSM supermarket/grocery tag; manually screened by name against MVP rubric.", "last_verified": "2026-09-17", "adequacy_tier": "assortment_only", "price_concern": "unknown", "quality_concern": "unknown", "reviewer_notes": "V1 assortment screen only. Quality and price not evaluated; many Detroit stores that meet minimum assortment are still overpriced or low-quality." }, "geometry": { "type": "Point", "coordinates": [ -83.023234, 42.340819 ] } },
{ "type": "Feature", "properties": { "id": "osm-unnamed-15", "name": "Family Foods Superstore", "address": "8665 Rosa Parks Boulevard nan", "latitude": 42.371927, "longitude": -83.097937, "source": "OpenStreetMap + manual review", "qualifies": true, "store_type": "supermarket", "notes": "OSM supermarket/grocery tag; manually screened by name against MVP rubric.", "last_verified": "2026-09-17", "adequacy_tier": "assortment_only", "price_concern": "unknown", "quality_concern": "unknown", "reviewer_notes": "V1 assortment screen only. Quality and price not evaluated; many Detroit stores that meet minimum assortment are still overpriced or low-quality." }, "geometry": { "type": "Point", "coordinates": [ -83.097937, 42.371927 ] } },
{ "type": "Feature", "properties": { "id": "osm-unnamed-16", "name": "Farmer John Food Center", "address": "9731 Harper Avenue Detroit", "latitude": 42.393451, "longitude": -83.006436, "source": "OpenStreetMap + manual review", "qualifies": true, "store_type": "supermarket", "notes": "OSM supermarket/grocery tag; manually screened by name against MVP rubric.", "last_verified": "2026-09-17", "adequacy_tier": "assortment_only", "price_concern": "unknown", "quality_concern": "unknown", "reviewer_notes": "V1 assortment screen only. Quality and price not evaluated; many Detroit stores that meet minimum assortment are still overpriced or low-quality." }, "geometry": { "type": "Point", "coordinates": [ -83.006436, 42.393451 ] } },
{ "type": "Feature", "properties": { "id": "osm-unnamed-17", "name": "Farmer Kay Market", "address": "24311 West McNichols Road Detroit", "latitude": 42.414282, "longitude": -83.279892, "source": "OpenStreetMap + manual review", "qualifies": true, "store_type": "grocery", "notes": "OSM supermarket/grocery tag; manually screened by name against MVP rubric.", "last_verified": "2026-09-17", "adequacy_tier": "assortment_only", "price_concern": "unknown", "quality_concern": "unknown", "reviewer_notes": "V1 assortment screen only. Quality and price not evaluated; many Detroit stores that meet minimum assortment are still overpriced or low-quality." }, "geometry": { "type": "Point", "coordinates": [ -83.279892, 42.414282 ] } },
{ "type": "Feature", "properties": { "id": "osm-unnamed-18", "name": "Farmer's Best Grocery Store", "address": "18246 Wyoming Street Detroit", "latitude": 42.424829, "longitude": -83.160425, "source": "OpenStreetMap + manual review", "qualifies": true, "store_type": "supermarket", "notes": "OSM supermarket/grocery tag; manually screened by name against MVP rubric.", "last_verified": "2026-09-17", "adequacy_tier": "assortment_only", "price_concern": "unknown", "quality_concern": "unknown", "reviewer_notes": "V1 assortment screen only. Quality and price not evaluated; many Detroit stores that meet minimum assortment are still overpriced or low-quality." }, "geometry": { "type": "Point", "coordinates": [ -83.160425, 42.424829 ] } },
{ "type": "Feature", "properties": { "id": "osm-unnamed-19", "name": "Food 4 Less", "address": "nan nan nan", "latitude": 42.387187, "longitude": -83.182408, "source": "OpenStreetMap + manual review", "qualifies": true, "store_type": "supermarket", "notes": "OSM supermarket/grocery tag; manually screened by name against MVP rubric.", "last_verified": "2026-09-17", "adequacy_tier": "assortment_only", "price_concern": "unknown", "quality_concern": "unknown", "reviewer_notes": "V1 assortment screen only. Quality and price not evaluated; many Detroit stores that meet minimum assortment are still overpriced or low-quality." }, "geometry": { "type": "Point", "coordinates": [ -83.182408, 42.387187 ] } },
{ "type": "Feature", "properties": { "id": "osm-unnamed-20", "name": "Food Farm Super Market", "address": "11550 Dexter Avenue Detroit", "latitude": 42.37866, "longitude": -83.122894, "source": "OpenStreetMap + manual review", "qualifies": true, "store_type": "supermarket", "notes": "OSM supermarket/grocery tag; manually screened by name against MVP rubric.", "last_verified": "2026-09-17", "adequacy_tier": "assortment_only", "price_concern": "unknown", "quality_concern": "unknown", "reviewer_notes": "V1 assortment screen only. Quality and price not evaluated; many Detroit stores that meet minimum assortment are still overpriced or low-quality." }, "geometry": { "type": "Point", "coordinates": [ -83.122894, 42.37866 ] } },
{ "type": "Feature", "properties": { "id": "osm-unnamed-21", "name": "Food Giant", "address": "14040 Greenfield Road Detroit", "latitude": 42.389137, "longitude": -83.197379, "source": "OpenStreetMap + manual review", "qualifies": true, "store_type": "supermarket", "notes": "OSM supermarket/grocery tag; manually screened by name against MVP rubric.", "last_verified": "2026-09-17", "adequacy_tier": "assortment_only", "price_concern": "unknown", "quality_concern": "unknown", "reviewer_notes": "V1 assortment screen only. Quality and price not evaluated; many Detroit stores that meet minimum assortment are still overpriced or low-quality." }, "geometry": { "type": "Point", "coordinates": [ -83.197379, 42.389137 ] } },
{ "type": "Feature", "properties": { "id": "osm-unnamed-22", "name": "Food Palace Supermarket", "address": "4809 East 7 Mile Road Detroit", "latitude": 42.433466, "longitude": -83.055481, "source": "OpenStreetMap + manual review", "qualifies": true, "store_type": "supermarket", "notes": "OSM supermarket/grocery tag; manually screened by name against MVP rubric.", "last_verified": "2026-09-17", "adequacy_tier": "assortment_only", "price_concern": "unknown", "quality_concern": "unknown", "reviewer_notes": "V1 assortment screen only. Quality and price not evaluated; many Detroit stores that meet minimum assortment are still overpriced or low-quality." }, "geometry": { "type": "Point", "coordinates": [ -83.055481, 42.433466 ] } },
{ "type": "Feature", "properties": { "id": "osm-unnamed-23", "name": "Food Pride Super Market", "address": "500 East Warren Avenue Detroit", "latitude": 42.358678, "longitude": -83.057853, "source": "OpenStreetMap + manual review", "qualifies": true, "store_type": "supermarket", "notes": "OSM supermarket/grocery tag; manually screened by name against MVP rubric.", "last_verified": "2026-09-17", "adequacy_tier": "assortment_only", "price_concern": "unknown", "quality_concern": "unknown", "reviewer_notes": "V1 assortment screen only. Quality and price not evaluated; many Detroit stores that meet minimum assortment are still overpriced or low-quality." }, "geometry": { "type": "Point", "coordinates": [ -83.057853, 42.358678 ] } },
{ "type": "Feature", "properties": { "id": "osm-unnamed-24", "name": "Garden Fresh Marketplace", "address": "6680 Michigan Avenue Detroit", "latitude": 42.331462, "longitude": -83.126186, "source": "OpenStreetMap + manual review", "qualifies": true, "store_type": "supermarket", "notes": "OSM supermarket/grocery tag; manually screened by name against MVP rubric.", "last_verified": "2026-09-17", "adequacy_tier": "assortment_only", "price_concern": "unknown", "quality_concern": "unknown", "reviewer_notes": "V1 assortment screen only. Quality and price not evaluated; many Detroit stores that meet minimum assortment are still overpriced or low-quality." }, "geometry": { "type": "Point", "coordinates": [ -83.126186, 42.331462 ] } },
{ "type": "Feature", "properties": { "id": "osm-unnamed-25", "name": "Glory Super Market", "address": "19150 Telegraph Road Detroit", "latitude": 42.429991, "longitude": -83.27649, "source": "OpenStreetMap + manual review", "qualifies": true, "store_type": "supermarket", "notes": "OSM supermarket/grocery tag; manually screened by name against MVP rubric.", "last_verified": "2026-09-17", "adequacy_tier": "assortment_only", "price_concern": "unknown", "quality_concern": "unknown", "reviewer_notes": "V1 assortment screen only. Quality and price not evaluated; many Detroit stores that meet minimum assortment are still overpriced or low-quality." }, "geometry": { "type": "Point", "coordinates": [ -83.27649, 42.429991 ] } },
{ "type": "Feature", "properties": { "id": "osm-unnamed-26", "name": "Glory Supermarket", "address": "12230 East 8 Mile Road Detroit", "latitude": 42.448006, "longitude": -83.000939, "source": "OpenStreetMap + manual review", "qualifies": true, "store_type": "supermarket", "notes": "OSM supermarket/grocery tag; manually screened by name against MVP rubric.", "last_verified": "2026-09-17", "adequacy_tier": "assortment_only", "price_concern": "unknown", "quality_concern": "unknown", "reviewer_notes": "V1 assortment screen only. Quality and price not evaluated; many Detroit stores that meet minimum assortment are still overpriced or low-quality." }, "geometry": { "type": "Point", "coordinates": [ -83.000939, 42.448006 ] } },
{ "type": "Feature", "properties": { "id": "osm-unnamed-27", "name": "Grace Food Market", "address": "12055 Morang Drive Detroit", "latitude": 42.426566, "longitude": -82.951835, "source": "OpenStreetMap + manual review", "qualifies": true, "store_type": "supermarket", "notes": "OSM supermarket/grocery tag; manually screened by name against MVP rubric.", "last_verified": "2026-09-17", "adequacy_tier": "assortment_only", "price_concern": "unknown", "quality_concern": "unknown", "reviewer_notes": "V1 assortment screen only. Quality and price not evaluated; many Detroit stores that meet minimum assortment are still overpriced or low-quality." }, "geometry": { "type": "Point", "coordinates": [ -82.951835, 42.426566 ] } },
{ "type": "Feature", "properties": { "id": "osm-unnamed-28", "name": "Grand Price Supermarket", "address": "12955 Grand River Avenue Detroit", "latitude": 42.381468, "longitude": -83.171338, "source": "OpenStreetMap + manual review", "qualifies": true, "store_type": "supermarket", "notes": "OSM supermarket/grocery tag; manually screened by name against MVP rubric.", "last_verified": "2026-09-17", "adequacy_tier": "assortment_only", "price_concern": "unknown", "quality_concern": "unknown", "reviewer_notes": "V1 assortment screen only. Quality and price not evaluated; many Detroit stores that meet minimum assortment are still overpriced or low-quality." }, "geometry": { "type": "Point", "coordinates": [ -83.171338, 42.381468 ] } },
{ "type": "Feature", "properties": { "id": "osm-unnamed-29", "name": "Gratiot Central Market", "address": "1429 Gratiot Avenue Detroit", "latitude": 42.344738, "longitude": -83.038405, "source": "OpenStreetMap + manual review", "qualifies": true, "store_type": "supermarket", "notes": "OSM supermarket/grocery tag; manually screened by name against MVP rubric.", "last_verified": "2026-09-17", "adequacy_tier": "assortment_only", "price_concern": "unknown", "quality_concern": "unknown", "reviewer_notes": "V1 assortment screen only. Quality and price not evaluated; many Detroit stores that meet minimum assortment are still overpriced or low-quality." }, "geometry": { "type": "Point", "coordinates": [ -83.038405, 42.344738 ] } },
{ "type": "Feature", "properties": { "id": "osm-unnamed-30", "name": "Greenfield Market", "address": "15530 Puritan Street Detroit", "latitude": 42.409306, "longitude": -83.199825, "source": "OpenStreetMap + manual review", "qualifies": true, "store_type": "supermarket", "notes": "OSM supermarket/grocery tag; manually screened by name against MVP rubric.", "last_verified": "2026-09-17", "adequacy_tier": "assortment_only", "price_concern": "unknown", "quality_concern": "unknown", "reviewer_notes": "V1 assortment screen only. Quality and price not evaluated; many Detroit stores that meet minimum assortment are still overpriced or low-quality." }, "geometry": { "type": "Point", "coordinates": [ -83.199825, 42.409306 ] } },
{ "type": "Feature", "properties": { "id": "osm-unnamed-31", "name": "Grocery Outlet", "address": "11500 East McNichols Road Detroit", "latitude": 42.419708, "longitude": -83.005415, "source": "OpenStreetMap + manual review", "qualifies": true, "store_type": "supermarket", "notes": "OSM supermarket/grocery tag; manually screened by name against MVP rubric.", "last_verified": "2026-09-17", "adequacy_tier": "assortment_only", "price_concern": "unknown", "quality_concern": "unknown", "reviewer_notes": "V1 assortment screen only. Quality and price not evaluated; many Detroit stores that meet minimum assortment are still overpriced or low-quality." }, "geometry": { "type": "Point", "coordinates": [ -83.005415, 42.419708 ] } },
{ "type": "Feature", "properties": { "id": "osm-unnamed-32", "name": "Guadalajara", "address": "nan nan nan", "latitude": 42.304875, "longitude": -83.129228, "source": "OpenStreetMap + manual review", "qualifies": true, "store_type": "supermarket", "notes": "OSM supermarket/grocery tag; manually screened by name against MVP rubric.", "last_verified": "2026-09-17", "adequacy_tier": "assortment_only", "price_concern": "unknown", "quality_concern": "unknown", "reviewer_notes": "V1 assortment screen only. Quality and price not evaluated; many Detroit stores that meet minimum assortment are still overpriced or low-quality." }, "geometry": { "type": "Point", "coordinates": [ -83.129228, 42.304875 ] } },
{ "type": "Feature", "properties": { "id": "osm-unnamed-33", "name": "Hacienda Mexican Foods", "address": "nan nan nan", "latitude": 42.31642, "longitude": -83.106261, "source": "OpenStreetMap + manual review", "qualifies": true, "store_type": "supermarket", "notes": "OSM supermarket/grocery tag; manually screened by name against MVP rubric.", "last_verified": "2026-09-17", "adequacy_tier": "assortment_only", "price_concern": "unknown", "quality_concern": "unknown", "reviewer_notes": "V1 assortment screen only. Quality and price not evaluated; many Detroit stores that meet minimum assortment are still overpriced or low-quality." }, "geometry": { "type": "Point", "coordinates": [ -83.106261, 42.31642 ] } },
{ "type": "Feature", "properties": { "id": "osm-unnamed-34", "name": "Harbortown Market", "address": "3472 East Jefferson Avenue Detroit", "latitude": 42.342502, "longitude": -83.011091, "source": "OpenStreetMap + manual review", "qualifies": true, "store_type": "supermarket", "notes": "OSM supermarket/grocery tag; manually screened by name against MVP rubric.", "last_verified": "2026-09-17", "adequacy_tier": "assortment_only", "price_concern": "unknown", "quality_concern": "unknown", "reviewer_notes": "V1 assortment screen only. Quality and price not evaluated; many Detroit stores that meet minimum assortment are still overpriced or low-quality." }, "geometry": { "type": "Point", "coordinates": [ -83.011091, 42.342502 ] } },
{ "type": "Feature", "properties": { "id": "osm-unnamed-35", "name": "Honey Bee Market La Colmena", "address": "2443 Bagley Street Detroit", "latitude": 42.325513, "longitude": -83.076586, "source": "OpenStreetMap + manual review", "qualifies": true, "store_type": "supermarket", "notes": "OSM supermarket/grocery tag; manually screened by name against MVP rubric.", "last_verified": "2026-09-17", "adequacy_tier": "assortment_only", "price_concern": "unknown", "quality_concern": "unknown", "reviewer_notes": "V1 assortment screen only. Quality and price not evaluated; many Detroit stores that meet minimum assortment are still overpriced or low-quality." }, "geometry": { "type": "Point", "coordinates": [ -83.076586, 42.325513 ] } },
{ "type": "Feature", "properties": { "id": "osm-unnamed-36", "name": "Imperial Supermarket", "address": "1940 East 8 Mile Road Detroit", "latitude": 42.446436, "longitude": -83.081767, "source": "OpenStreetMap + manual review", "qualifies": true, "store_type": "supermarket", "notes": "OSM supermarket/grocery tag; manually screened by name against MVP rubric.", "last_verified": "2026-09-17", "adequacy_tier": "assortment_only", "price_concern": "unknown", "quality_concern": "unknown", "reviewer_notes": "V1 assortment screen only. Quality and price not evaluated; many Detroit stores that meet minimum assortment are still overpriced or low-quality." }, "geometry": { "type": "Point", "coordinates": [ -83.081767, 42.446436 ] } },
{ "type": "Feature", "properties": { "id": "osm-unnamed-37", "name": "Indian Village Market", "address": "8415 East Jefferson Avenue Detroit", "latitude": 42.354382, "longitude": -82.991192, "source": "OpenStreetMap + manual review", "qualifies": true, "store_type": "supermarket", "notes": "OSM supermarket/grocery tag; manually screened by name against MVP rubric.", "last_verified": "2026-09-17", "adequacy_tier": "assortment_only", "price_concern": "unknown", "quality_concern": "unknown", "reviewer_notes": "V1 assortment screen only. Quality and price not evaluated; many Detroit stores that meet minimum assortment are still overpriced or low-quality." }, "geometry": { "type": "Point", "coordinates": [ -82.991192, 42.354382 ] } },
{ "type": "Feature", "properties": { "id": "osm-unnamed-38", "name": "International African Grocery", "address": "23689 West 7 Mile Road Detroit", "latitude": 42.42875, "longitude": -83.274464, "source": "OpenStreetMap + manual review", "qualifies": true, "store_type": "supermarket", "notes": "OSM supermarket/grocery tag; manually screened by name against MVP rubric.", "last_verified": "2026-09-17", "adequacy_tier": "assortment_only", "price_concern": "unknown", "quality_concern": "unknown", "reviewer_notes": "V1 assortment screen only. Quality and price not evaluated; many Detroit stores that meet minimum assortment are still overpriced or low-quality." }, "geometry": { "type": "Point", "coordinates": [ -83.274464, 42.42875 ] } },
{ "type": "Feature", "properties": { "id": "osm-unnamed-39", "name": "King Cole Foods", "address": "40 Clairmount Street Detroit", "latitude": 42.382705, "longitude": -83.082616, "source": "OpenStreetMap + manual review", "qualifies": true, "store_type": "supermarket", "notes": "OSM supermarket/grocery tag; manually screened by name against MVP rubric.", "last_verified": "2026-09-17", "adequacy_tier": "assortment_only", "price_concern": "unknown", "quality_concern": "unknown", "reviewer_notes": "V1 assortment screen only. Quality and price not evaluated; many Detroit stores that meet minimum assortment are still overpriced or low-quality." }, "geometry": { "type": "Point", "coordinates": [ -83.082616, 42.382705 ] } },
{ "type": "Feature", "properties": { "id": "osm-unnamed-40", "name": "King Saver Foods", "address": "2645 West Davison Street Detroit", "latitude": 42.392191, "longitude": -83.123046, "source": "OpenStreetMap + manual review", "qualifies": true, "store_type": "supermarket", "notes": "OSM supermarket/grocery tag; manually screened by name against MVP rubric.", "last_verified": "2026-09-17", "adequacy_tier": "assortment_only", "price_concern": "unknown", "quality_concern": "unknown", "reviewer_notes": "V1 assortment screen only. Quality and price not evaluated; many Detroit stores that meet minimum assortment are still overpriced or low-quality." }, "geometry": { "type": "Point", "coordinates": [ -83.123046, 42.392191 ] } },
{ "type": "Feature", "properties": { "id": "osm-unnamed-41", "name": "Krown Supermarket", "address": "5800 Caniff Street Detroit", "latitude": 42.405442, "longitude": -83.043316, "source": "OpenStreetMap + manual review", "qualifies": true, "store_type": "supermarket", "notes": "OSM supermarket/grocery tag; manually screened by name against MVP rubric.", "last_verified": "2026-09-17", "adequacy_tier": "assortment_only", "price_concern": "unknown", "quality_concern": "unknown", "reviewer_notes": "V1 assortment screen only. Quality and price not evaluated; many Detroit stores that meet minimum assortment are still overpriced or low-quality." }, "geometry": { "type": "Point", "coordinates": [ -83.043316, 42.405442 ] } },
{ "type": "Feature", "properties": { "id": "osm-unnamed-42", "name": "La Fiesta Market Carniceria", "address": "7403 West Vernor Highway Detroit", "latitude": 42.313372, "longitude": -83.121908, "source": "OpenStreetMap + manual review", "qualifies": true, "store_type": "supermarket", "notes": "OSM supermarket/grocery tag; manually screened by name against MVP rubric.", "last_verified": "2026-09-17", "adequacy_tier": "assortment_only", "price_concern": "unknown", "quality_concern": "unknown", "reviewer_notes": "V1 assortment screen only. Quality and price not evaluated; many Detroit stores that meet minimum assortment are still overpriced or low-quality." }, "geometry": { "type": "Point", "coordinates": [ -83.121908, 42.313372 ] } },
{ "type": "Feature", "properties": { "id": "osm-unnamed-43", "name": "La Jalisciense Supermercado / Taqueria", "address": "3923 West Vernor Highway Detroit", "latitude": 42.321891, "longitude": -83.090962, "source": "OpenStreetMap + manual review", "qualifies": true, "store_type": "supermarket", "notes": "OSM supermarket/grocery tag; manually screened by name against MVP rubric.", "last_verified": "2026-09-17", "adequacy_tier": "assortment_only", "price_concern": "unknown", "quality_concern": "unknown", "reviewer_notes": "V1 assortment screen only. Quality and price not evaluated; many Detroit stores that meet minimum assortment are still overpriced or low-quality." }, "geometry": { "type": "Point", "coordinates": [ -83.090962, 42.321891 ] } },
{ "type": "Feature", "properties": { "id": "osm-unnamed-44", "name": "Lafayette Foods", "address": "nan nan nan", "latitude": 42.33907, "longitude": -83.031959, "source": "OpenStreetMap + manual review", "qualifies": true, "store_type": "supermarket", "notes": "OSM supermarket/grocery tag; manually screened by name against MVP rubric.", "last_verified": "2026-09-17", "adequacy_tier": "assortment_only", "price_concern": "unknown", "quality_concern": "unknown", "reviewer_notes": "V1 assortment screen only. Quality and price not evaluated; many Detroit stores that meet minimum assortment are still overpriced or low-quality." }, "geometry": { "type": "Point", "coordinates": [ -83.031959, 42.33907 ] } },
{ "type": "Feature", "properties": { "id": "osm-unnamed-45", "name": "Lance's Hometown Supermarket", "address": "8656 Wyoming Street Detroit", "latitude": 42.35868, "longitude": -83.157353, "source": "OpenStreetMap + manual review", "qualifies": true, "store_type": "supermarket", "notes": "OSM supermarket/grocery tag; manually screened by name against MVP rubric.", "last_verified": "2026-09-17", "adequacy_tier": "assortment_only", "price_concern": "unknown", "quality_concern": "unknown", "reviewer_notes": "V1 assortment screen only. Quality and price not evaluated; many Detroit stores that meet minimum assortment are still overpriced or low-quality." }, "geometry": { "type": "Point", "coordinates": [ -83.157353, 42.35868 ] } },
{ "type": "Feature", "properties": { "id": "osm-unnamed-46", "name": "Liberty Food Center", "address": "10620 West McNichols Road Detroit", "latitude": 42.416983, "longitude": -83.167971, "source": "OpenStreetMap + manual review", "qualifies": true, "store_type": "supermarket", "notes": "OSM supermarket/grocery tag; manually screened by name against MVP rubric.", "last_verified": "2026-09-17", "adequacy_tier": "assortment_only", "price_concern": "unknown", "quality_concern": "unknown", "reviewer_notes": "V1 assortment screen only. Quality and price not evaluated; many Detroit stores that meet minimum assortment are still overpriced or low-quality." }, "geometry": { "type": "Point", "coordinates": [ -83.167971, 42.416983 ] } },
{ "type": "Feature", "properties": { "id": "osm-unnamed-47", "name": "Mazen Foods", "address": "12740 Gratiot Avenue Detroit", "latitude": 42.419747, "longitude": -82.987256, "source": "OpenStreetMap + manual review", "qualifies": true, "store_type": "supermarket", "notes": "OSM supermarket/grocery tag; manually screened by name against MVP rubric.", "last_verified": "2026-09-17", "adequacy_tier": "assortment_only", "price_concern": "unknown", "quality_concern": "unknown", "reviewer_notes": "V1 assortment screen only. Quality and price not evaluated; many Detroit stores that meet minimum assortment are still overpriced or low-quality." }, "geometry": { "type": "Point", "coordinates": [ -82.987256, 42.419747 ] } },
{ "type": "Feature", "properties": { "id": "osm-unnamed-48", "name": "Meijer", "address": "1301 8 Mile Road West Detroit", "latitude": 42.444359, "longitude": -83.119183, "source": "OpenStreetMap + manual review", "qualifies": true, "store_type": "supermarket", "notes": "OSM supermarket/grocery tag; manually screened by name against MVP rubric.", "last_verified": "2026-09-17", "adequacy_tier": "assortment_only", "price_concern": "unknown", "quality_concern": "unknown", "reviewer_notes": "V1 assortment screen only. Quality and price not evaluated; many Detroit stores that meet minimum assortment are still overpriced or low-quality." }, "geometry": { "type": "Point", "coordinates": [ -83.119183, 42.444359 ] } },
{ "type": "Feature", "properties": { "id": "osm-unnamed-49", "name": "Meijer", "address": "21431 Grand River Avenue Detroit", "latitude": 42.412091, "longitude": -83.252769, "source": "OpenStreetMap + manual review", "qualifies": true, "store_type": "supermarket", "notes": "OSM supermarket/grocery tag; manually screened by name against MVP rubric.", "last_verified": "2026-09-17", "adequacy_tier": "assortment_only", "price_concern": "unknown", "quality_concern": "unknown", "reviewer_notes": "V1 assortment screen only. Quality and price not evaluated; many Detroit stores that meet minimum assortment are still overpriced or low-quality." }, "geometry": { "type": "Point", "coordinates": [ -83.252769, 42.412091 ] } },
{ "type": "Feature", "properties": { "id": "osm-unnamed-50", "name": "Meijer", "address": "1475 East Jefferson Avenue Detroit", "latitude": 42.334121, "longitude": -83.032934, "source": "OpenStreetMap + manual review", "qualifies": true, "store_type": "supermarket", "notes": "OSM supermarket/grocery tag; manually screened by name against MVP rubric.", "last_verified": "2026-09-17", "adequacy_tier": "assortment_only", "price_concern": "unknown", "quality_concern": "unknown", "reviewer_notes": "V1 assortment screen only. Quality and price not evaluated; many Detroit stores that meet minimum assortment are still overpriced or low-quality." }, "geometry": { "type": "Point", "coordinates": [ -83.032934, 42.334121 ] } },
{ "type": "Feature", "properties": { "id": "osm-unnamed-51", "name": "Mike's Fresh Market", "address": "19195 Livernois Avenue Detroit", "latitude": 42.432853, "longitude": -83.142614, "source": "OpenStreetMap + manual review", "qualifies": true, "store_type": "supermarket", "notes": "OSM supermarket/grocery tag; manually screened by name against MVP rubric.", "last_verified": "2026-09-17", "adequacy_tier": "assortment_only", "price_concern": "unknown", "quality_concern": "unknown", "reviewer_notes": "V1 assortment screen only. Quality and price not evaluated; many Detroit stores that meet minimum assortment are still overpriced or low-quality." }, "geometry": { "type": "Point", "coordinates": [ -83.142614, 42.432853 ] } },
{ "type": "Feature", "properties": { "id": "osm-unnamed-52", "name": "Mike's Fresh Market", "address": "14383 Gratiot Avenue Detroit", "latitude": 42.436646, "longitude": -82.97865, "source": "OpenStreetMap + manual review", "qualifies": true, "store_type": "supermarket", "notes": "OSM supermarket/grocery tag; manually screened by name against MVP rubric.", "last_verified": "2026-09-17", "adequacy_tier": "assortment_only", "price_concern": "unknown", "quality_concern": "unknown", "reviewer_notes": "V1 assortment screen only. Quality and price not evaluated; many Detroit stores that meet minimum assortment are still overpriced or low-quality." }, "geometry": { "type": "Point", "coordinates": [ -82.97865, 42.436646 ] } },
{ "type": "Feature", "properties": { "id": "osm-unnamed-53", "name": "New Pick And Save Market", "address": "7404 East 7 Mile Road Detroit", "latitude": 42.433715, "longitude": -83.028485, "source": "OpenStreetMap + manual review", "qualifies": true, "store_type": "supermarket", "notes": "OSM supermarket/grocery tag; manually screened by name against MVP rubric.", "last_verified": "2026-09-17", "adequacy_tier": "assortment_only", "price_concern": "unknown", "quality_concern": "unknown", "reviewer_notes": "V1 assortment screen only. Quality and price not evaluated; many Detroit stores that meet minimum assortment are still overpriced or low-quality." }, "geometry": { "type": "Point", "coordinates": [ -83.028485, 42.433715 ] } },
{ "type": "Feature", "properties": { "id": "osm-unnamed-54", "name": "Old Redford Food Center", "address": "21673 Grand River Avenue Detroit", "latitude": 42.415592, "longitude": -83.256722, "source": "OpenStreetMap + manual review", "qualifies": true, "store_type": "supermarket", "notes": "OSM supermarket/grocery tag; manually screened by name against MVP rubric.", "last_verified": "2026-09-17", "adequacy_tier": "assortment_only", "price_concern": "unknown", "quality_concern": "unknown", "reviewer_notes": "V1 assortment screen only. Quality and price not evaluated; many Detroit stores that meet minimum assortment are still overpriced or low-quality." }, "geometry": { "type": "Point", "coordinates": [ -83.256722, 42.415592 ] } },
{ "type": "Feature", "properties": { "id": "osm-unnamed-55", "name": "Parkway Foods", "address": "11250 East Jefferson Avenue Detroit", "latitude": 42.365305, "longitude": -82.97077, "source": "OpenStreetMap + manual review", "qualifies": true, "store_type": "supermarket", "notes": "OSM supermarket/grocery tag; manually screened by name against MVP rubric.", "last_verified": "2026-09-17", "adequacy_tier": "assortment_only", "price_concern": "unknown", "quality_concern": "unknown", "reviewer_notes": "V1 assortment screen only. Quality and price not evaluated; many Detroit stores that meet minimum assortment are still overpriced or low-quality." }, "geometry": { "type": "Point", "coordinates": [ -82.97077, 42.365305 ] } },
{ "type": "Feature", "properties": { "id": "osm-unnamed-56", "name": "Plum Market", "address": "500 Woodward Avenue Detroit", "latitude": 42.329814, "longitude": -83.045028, "source": "OpenStreetMap + manual review", "qualifies": true, "store_type": "supermarket", "notes": "OSM supermarket/grocery tag; manually screened by name against MVP rubric.", "last_verified": "2026-09-17", "adequacy_tier": "assortment_only", "price_concern": "unknown", "quality_concern": "unknown", "reviewer_notes": "V1 assortment screen only. Quality and price not evaluated; many Detroit stores that meet minimum assortment are still overpriced or low-quality." }, "geometry": { "type": "Point", "coordinates": [ -83.045028, 42.329814 ] } },
{ "type": "Feature", "properties": { "id": "osm-unnamed-57", "name": "Prince Valley Supermercado Gigante", "address": "5931 Michigan Avenue Detroit", "latitude": 42.330607, "longitude": -83.11617, "source": "OpenStreetMap + manual review", "qualifies": true, "store_type": "supermarket", "notes": "OSM supermarket/grocery tag; manually screened by name against MVP rubric.", "last_verified": "2026-09-17", "adequacy_tier": "assortment_only", "price_concern": "unknown", "quality_concern": "unknown", "reviewer_notes": "V1 assortment screen only. Quality and price not evaluated; many Detroit stores that meet minimum assortment are still overpriced or low-quality." }, "geometry": { "type": "Point", "coordinates": [ -83.11617, 42.330607 ] } },
{ "type": "Feature", "properties": { "id": "osm-unnamed-58", "name": "Royal Fresh Market", "address": "18551 Grand River Avenue Detroit", "latitude": 42.402485, "longitude": -83.223994, "source": "OpenStreetMap + manual review", "qualifies": true, "store_type": "supermarket", "notes": "OSM supermarket/grocery tag; manually screened by name against MVP rubric.", "last_verified": "2026-09-17", "adequacy_tier": "assortment_only", "price_concern": "unknown", "quality_concern": "unknown", "reviewer_notes": "V1 assortment screen only. Quality and price not evaluated; many Detroit stores that meet minimum assortment are still overpriced or low-quality." }, "geometry": { "type": "Point", "coordinates": [ -83.223994, 42.402485 ] } },
{ "type": "Feature", "properties": { "id": "osm-unnamed-59", "name": "Saturn Super Foods", "address": "20221 Joy Road Detroit", "latitude": 42.3572, "longitude": -83.239062, "source": "OpenStreetMap + manual review", "qualifies": true, "store_type": "supermarket", "notes": "OSM supermarket/grocery tag; manually screened by name against MVP rubric.", "last_verified": "2026-09-17", "adequacy_tier": "assortment_only", "price_concern": "unknown", "quality_concern": "unknown", "reviewer_notes": "V1 assortment screen only. Quality and price not evaluated; many Detroit stores that meet minimum assortment are still overpriced or low-quality." }, "geometry": { "type": "Point", "coordinates": [ -83.239062, 42.3572 ] } },
{ "type": "Feature", "properties": { "id": "osm-unnamed-60", "name": "Save More & Discount", "address": "6835 Michigan Avenue Detroit", "latitude": 42.330522, "longitude": -83.127521, "source": "OpenStreetMap + manual review", "qualifies": true, "store_type": "supermarket", "notes": "OSM supermarket/grocery tag; manually screened by name against MVP rubric.", "last_verified": "2026-09-17", "adequacy_tier": "assortment_only", "price_concern": "unknown", "quality_concern": "unknown", "reviewer_notes": "V1 assortment screen only. Quality and price not evaluated; many Detroit stores that meet minimum assortment are still overpriced or low-quality." }, "geometry": { "type": "Point", "coordinates": [ -83.127521, 42.330522 ] } },
{ "type": "Feature", "properties": { "id": "osm-unnamed-61", "name": "Save-A-Lot", "address": "4703 Conner Street Detroit", "latitude": 42.387225, "longitude": -82.972812, "source": "OpenStreetMap + manual review", "qualifies": true, "store_type": "supermarket", "notes": "OSM supermarket/grocery tag; manually screened by name against MVP rubric.", "last_verified": "2026-09-17", "adequacy_tier": "assortment_only", "price_concern": "unknown", "quality_concern": "unknown", "reviewer_notes": "V1 assortment screen only. Quality and price not evaluated; many Detroit stores that meet minimum assortment are still overpriced or low-quality." }, "geometry": { "type": "Point", "coordinates": [ -82.972812, 42.387225 ] } },
{ "type": "Feature", "properties": { "id": "osm-unnamed-62", "name": "Save-A-Lot", "address": "15001 Houston Whittier Street Detroit", "latitude": 42.421044, "longitude": -82.966887, "source": "OpenStreetMap + manual review", "qualifies": true, "store_type": "supermarket", "notes": "OSM supermarket/grocery tag; manually screened by name against MVP rubric.", "last_verified": "2026-09-17", "adequacy_tier": "assortment_only", "price_concern": "unknown", "quality_concern": "unknown", "reviewer_notes": "V1 assortment screen only. Quality and price not evaluated; many Detroit stores that meet minimum assortment are still overpriced or low-quality." }, "geometry": { "type": "Point", "coordinates": [ -82.966887, 42.421044 ] } },
{ "type": "Feature", "properties": { "id": "osm-unnamed-63", "name": "Save-A-Lot", "address": "3681 Gratiot Avenue Detroit", "latitude": 42.363764, "longitude": -83.025524, "source": "OpenStreetMap + manual review", "qualifies": true, "store_type": "supermarket", "notes": "OSM supermarket/grocery tag; manually screened by name against MVP rubric.", "last_verified": "2026-09-17", "adequacy_tier": "assortment_only", "price_concern": "unknown", "quality_concern": "unknown", "reviewer_notes": "V1 assortment screen only. Quality and price not evaluated; many Detroit stores that meet minimum assortment are still overpriced or low-quality." }, "geometry": { "type": "Point", "coordinates": [ -83.025524, 42.363764 ] } },
{ "type": "Feature", "properties": { "id": "osm-unnamed-64", "name": "Save-A-Lot", "address": "20811 West 8 Mile Road Detroit", "latitude": 42.443206, "longitude": -83.248534, "source": "OpenStreetMap + manual review", "qualifies": true, "store_type": "supermarket", "notes": "OSM supermarket/grocery tag; manually screened by name against MVP rubric.", "last_verified": "2026-09-17", "adequacy_tier": "assortment_only", "price_concern": "unknown", "quality_concern": "unknown", "reviewer_notes": "V1 assortment screen only. Quality and price not evaluated; many Detroit stores that meet minimum assortment are still overpriced or low-quality." }, "geometry": { "type": "Point", "coordinates": [ -83.248534, 42.443206 ] } },
{ "type": "Feature", "properties": { "id": "osm-unnamed-65", "name": "Save-A-Lot", "address": "13750 Fenkell Street Detroit", "latitude": 42.402252, "longitude": -83.181346, "source": "OpenStreetMap + manual review", "qualifies": true, "store_type": "supermarket", "notes": "OSM supermarket/grocery tag; manually screened by name against MVP rubric.", "last_verified": "2026-09-17", "adequacy_tier": "assortment_only", "price_concern": "unknown", "quality_concern": "unknown", "reviewer_notes": "V1 assortment screen only. Quality and price not evaluated; many Detroit stores that meet minimum assortment are still overpriced or low-quality." }, "geometry": { "type": "Point", "coordinates": [ -83.181346, 42.402252 ] } },
{ "type": "Feature", "properties": { "id": "osm-unnamed-66", "name": "Save-A-Lot", "address": "5181 Grand River Avenue Detroit", "latitude": 42.349201, "longitude": -83.092842, "source": "OpenStreetMap + manual review", "qualifies": true, "store_type": "supermarket", "notes": "OSM supermarket/grocery tag; manually screened by name against MVP rubric.", "last_verified": "2026-09-17", "adequacy_tier": "assortment_only", "price_concern": "unknown", "quality_concern": "unknown", "reviewer_notes": "V1 assortment screen only. Quality and price not evaluated; many Detroit stores that meet minimum assortment are still overpriced or low-quality." }, "geometry": { "type": "Point", "coordinates": [ -83.092842, 42.349201 ] } },
{ "type": "Feature", "properties": { "id": "osm-unnamed-67", "name": "Save-A-Lot Grocery Store", "address": "nan nan nan", "latitude": 42.351573, "longitude": -83.176832, "source": "OpenStreetMap + manual review", "qualifies": true, "store_type": "supermarket", "notes": "OSM supermarket/grocery tag; manually screened by name against MVP rubric.", "last_verified": "2026-09-17", "adequacy_tier": "assortment_only", "price_concern": "unknown", "quality_concern": "unknown", "reviewer_notes": "V1 assortment screen only. Quality and price not evaluated; many Detroit stores that meet minimum assortment are still overpriced or low-quality." }, "geometry": { "type": "Point", "coordinates": [ -83.176832, 42.351573 ] } },
{ "type": "Feature", "properties": { "id": "osm-unnamed-68", "name": "Saveway", "address": "13233 East 7 Mile Road Detroit", "latitude": 42.435197, "longitude": -82.989453, "source": "OpenStreetMap + manual review", "qualifies": true, "store_type": "supermarket", "notes": "OSM supermarket/grocery tag; manually screened by name against MVP rubric.", "last_verified": "2026-09-17", "adequacy_tier": "assortment_only", "price_concern": "unknown", "quality_concern": "unknown", "reviewer_notes": "V1 assortment screen only. Quality and price not evaluated; many Detroit stores that meet minimum assortment are still overpriced or low-quality." }, "geometry": { "type": "Point", "coordinates": [ -82.989453, 42.435197 ] } },
{ "type": "Feature", "properties": { "id": "osm-unnamed-69", "name": "Savon Foods", "address": "15025 West 7 Mile Road Detroit", "latitude": 42.430362, "longitude": -83.194251, "source": "OpenStreetMap + manual review", "qualifies": true, "store_type": "supermarket", "notes": "OSM supermarket/grocery tag; manually screened by name against MVP rubric.", "last_verified": "2026-09-17", "adequacy_tier": "assortment_only", "price_concern": "unknown", "quality_concern": "unknown", "reviewer_notes": "V1 assortment screen only. Quality and price not evaluated; many Detroit stores that meet minimum assortment are still overpriced or low-quality." }, "geometry": { "type": "Point", "coordinates": [ -83.194251, 42.430362 ] } },
{ "type": "Feature", "properties": { "id": "osm-unnamed-70", "name": "Savon Foods Supermarket", "address": "18000 Livernois Avenue Detroit", "latitude": 42.423333, "longitude": -83.140861, "source": "OpenStreetMap + manual review", "qualifies": true, "store_type": "supermarket", "notes": "OSM supermarket/grocery tag; manually screened by name against MVP rubric.", "last_verified": "2026-09-17", "adequacy_tier": "assortment_only", "price_concern": "unknown", "quality_concern": "unknown", "reviewer_notes": "V1 assortment screen only. Quality and price not evaluated; many Detroit stores that meet minimum assortment are still overpriced or low-quality." }, "geometry": { "type": "Point", "coordinates": [ -83.140861, 42.423333 ] } },
{ "type": "Feature", "properties": { "id": "osm-unnamed-71", "name": "Sea-Way Supermarket", "address": "18330 West Chicago Street Detroit", "latitude": 42.365756, "longitude": -83.21966, "source": "OpenStreetMap + manual review", "qualifies": true, "store_type": "supermarket", "notes": "OSM supermarket/grocery tag; manually screened by name against MVP rubric.", "last_verified": "2026-09-17", "adequacy_tier": "assortment_only", "price_concern": "unknown", "quality_concern": "unknown", "reviewer_notes": "V1 assortment screen only. Quality and price not evaluated; many Detroit stores that meet minimum assortment are still overpriced or low-quality." }, "geometry": { "type": "Point", "coordinates": [ -83.21966, 42.365756 ] } },
{ "type": "Feature", "properties": { "id": "osm-unnamed-72", "name": "Shop A Lot Food Center", "address": "10320 Plymouth Road Detroit", "latitude": 42.373693, "longitude": -83.162719, "source": "OpenStreetMap + manual review", "qualifies": true, "store_type": "supermarket", "notes": "OSM supermarket/grocery tag; manually screened by name against MVP rubric.", "last_verified": "2026-09-17", "adequacy_tier": "assortment_only", "price_concern": "unknown", "quality_concern": "unknown", "reviewer_notes": "V1 assortment screen only. Quality and price not evaluated; many Detroit stores that meet minimum assortment are still overpriced or low-quality." }, "geometry": { "type": "Point", "coordinates": [ -83.162719, 42.373693 ] } },
{ "type": "Feature", "properties": { "id": "osm-unnamed-73", "name": "Special Way Market", "address": "15735 Schoolcraft Street Detroit", "latitude": 42.386682, "longitude": -83.201221, "source": "OpenStreetMap + manual review", "qualifies": true, "store_type": "supermarket", "notes": "OSM supermarket/grocery tag; manually screened by name against MVP rubric.", "last_verified": "2026-09-17", "adequacy_tier": "assortment_only", "price_concern": "unknown", "quality_concern": "unknown", "reviewer_notes": "V1 assortment screen only. Quality and price not evaluated; many Detroit stores that meet minimum assortment are still overpriced or low-quality." }, "geometry": { "type": "Point", "coordinates": [ -83.201221, 42.386682 ] } },
{ "type": "Feature", "properties": { "id": "osm-unnamed-74", "name": "Sugar Market", "address": "20427 Plymouth Road Detroit", "latitude": 42.371588, "longitude": -83.2401, "source": "OpenStreetMap + manual review", "qualifies": true, "store_type": "supermarket", "notes": "OSM supermarket/grocery tag; manually screened by name against MVP rubric.", "last_verified": "2026-09-17", "adequacy_tier": "assortment_only", "price_concern": "unknown", "quality_concern": "unknown", "reviewer_notes": "V1 assortment screen only. Quality and price not evaluated; many Detroit stores that meet minimum assortment are still overpriced or low-quality." }, "geometry": { "type": "Point", "coordinates": [ -83.2401, 42.371588 ] } },
{ "type": "Feature", "properties": { "id": "osm-unnamed-75", "name": "Thrifty Scot", "address": "12021 Harper Avenue Detroit", "latitude": 42.399344, "longitude": -82.983903, "source": "OpenStreetMap + manual review", "qualifies": true, "store_type": "supermarket", "notes": "OSM supermarket/grocery tag; manually screened by name against MVP rubric.", "last_verified": "2026-09-17", "adequacy_tier": "assortment_only", "price_concern": "unknown", "quality_concern": "unknown", "reviewer_notes": "V1 assortment screen only. Quality and price not evaluated; many Detroit stores that meet minimum assortment are still overpriced or low-quality." }, "geometry": { "type": "Point", "coordinates": [ -82.983903, 42.399344 ] } },
{ "type": "Feature", "properties": { "id": "osm-unnamed-76", "name": "University Foods", "address": "1131 West Warren Avenue Detroit", "latitude": 42.352626, "longitude": -83.074486, "source": "OpenStreetMap + manual review", "qualifies": true, "store_type": "supermarket", "notes": "OSM supermarket/grocery tag; manually screened by name against MVP rubric.", "last_verified": "2026-09-17", "adequacy_tier": "assortment_only", "price_concern": "unknown", "quality_concern": "unknown", "reviewer_notes": "V1 assortment screen only. Quality and price not evaluated; many Detroit stores that meet minimum assortment are still overpriced or low-quality." }, "geometry": { "type": "Point", "coordinates": [ -83.074486, 42.352626 ] } },
{ "type": "Feature", "properties": { "id": "osm-unnamed-77", "name": "Unnamed supermarket (OSM None)", "address": "1435 Lawndale Street Detroit", "latitude": 42.303379, "longitude": -83.128853, "source": "OpenStreetMap + manual review", "qualifies": true, "store_type": "supermarket_unnamed", "notes": "OSM supermarket without name; included pending field verification.", "last_verified": "2026-09-17", "adequacy_tier": "assortment_only", "price_concern": "unknown", "quality_concern": "unknown", "reviewer_notes": "V1 assortment screen only. Quality and price not evaluated; many Detroit stores that meet minimum assortment are still overpriced or low-quality." }, "geometry": { "type": "Point", "coordinates": [ -83.128853, 42.303379 ] } },
{ "type": "Feature", "properties": { "id": "osm-unnamed-78", "name": "Unnamed supermarket (OSM None)", "address": "nan nan nan", "latitude": 42.415548, "longitude": -82.99005, "source": "OpenStreetMap + manual review", "qualifies": true, "store_type": "supermarket_unnamed", "notes": "OSM supermarket without name; included pending field verification.", "last_verified": "2026-09-17", "adequacy_tier": "assortment_only", "price_concern": "unknown", "quality_concern": "unknown", "reviewer_notes": "V1 assortment screen only. Quality and price not evaluated; many Detroit stores that meet minimum assortment are still overpriced or low-quality." }, "geometry": { "type": "Point", "coordinates": [ -82.99005, 42.415548 ] } },
{ "type": "Feature", "properties": { "id": "osm-unnamed-79", "name": "Unnamed supermarket (OSM None)", "address": "nan nan nan", "latitude": 42.430433, "longitude": -83.189182, "source": "OpenStreetMap + manual review", "qualifies": true, "store_type": "supermarket_unnamed", "notes": "OSM supermarket without name; included pending field verification.", "last_verified": "2026-09-17", "adequacy_tier": "assortment_only", "price_concern": "unknown", "quality_concern": "unknown", "reviewer_notes": "V1 assortment screen only. Quality and price not evaluated; many Detroit stores that meet minimum assortment are still overpriced or low-quality." }, "geometry": { "type": "Point", "coordinates": [ -83.189182, 42.430433 ] } },
{ "type": "Feature", "properties": { "id": "osm-unnamed-80", "name": "Value Save Food Center", "address": "nan nan nan", "latitude": 42.395843, "longitude": -83.137983, "source": "OpenStreetMap + manual review", "qualifies": true, "store_type": "supermarket", "notes": "OSM supermarket/grocery tag; manually screened by name against MVP rubric.", "last_verified": "2026-09-17", "adequacy_tier": "assortment_only", "price_concern": "unknown", "quality_concern": "unknown", "reviewer_notes": "V1 assortment screen only. Quality and price not evaluated; many Detroit stores that meet minimum assortment are still overpriced or low-quality." }, "geometry": { "type": "Point", "coordinates": [ -83.137983, 42.395843 ] } },
{ "type": "Feature", "properties": { "id": "osm-unnamed-81", "name": "Vernor Food Center", "address": "8801 West Vernor Highway Detroit", "latitude": 42.308594, "longitude": -83.133456, "source": "OpenStreetMap + manual review", "qualifies": true, "store_type": "supermarket", "notes": "OSM supermarket/grocery tag; manually screened by name against MVP rubric.", "last_verified": "2026-09-17", "adequacy_tier": "assortment_only", "price_concern": "unknown", "quality_concern": "unknown", "reviewer_notes": "V1 assortment screen only. Quality and price not evaluated; many Detroit stores that meet minimum assortment are still overpriced or low-quality." }, "geometry": { "type": "Point", "coordinates": [ -83.133456, 42.308594 ] } },
{ "type": "Feature", "properties": { "id": "osm-unnamed-82", "name": "Whole Foods Market", "address": "115 Mack Avenue nan", "latitude": 42.348525, "longitude": -83.056521, "source": "OpenStreetMap + manual review", "qualifies": true, "store_type": "supermarket", "notes": "OSM supermarket/grocery tag; manually screened by name against MVP rubric.", "last_verified": "2026-09-17", "adequacy_tier": "assortment_only", "price_concern": "unknown", "quality_concern": "unknown", "reviewer_notes": "V1 assortment screen only. Quality and price not evaluated; many Detroit stores that meet minimum assortment are still overpriced or low-quality." }, "geometry": { "type": "Point", "coordinates": [ -83.056521, 42.348525 ] } },
{ "type": "Feature", "properties": { "id": "osm-unnamed-83", "name": "Wonder Foods Supermarket", "address": "10450 Shoemaker Street Detroit", "latitude": 42.389246, "longitude": -82.996489, "source": "OpenStreetMap + manual review", "qualifies": true, "store_type": "supermarket", "notes": "OSM supermarket/grocery tag; manually screened by name against MVP rubric.", "last_verified": "2026-09-17", "adequacy_tier": "assortment_only", "price_concern": "unknown", "quality_concern": "unknown", "reviewer_notes": "V1 assortment screen only. Quality and price not evaluated; many Detroit stores that meet minimum assortment are still overpriced or low-quality." }, "geometry": { "type": "Point", "coordinates": [ -82.996489, 42.389246 ] } }
]
}
